[{"OBJECT_NAME":"STARLINK-30489","OBJECT_ID":"2023-151L","EPOCH":"2026-03-09T01:55:19.776000","MEAN_MOTION":15.2671903,"ECCENTRICITY":0.00023706,"INCLINATION":43.0031,"RA_OF_ASC_NODE":339.3962,"ARG_OF_PERICENTER":252.2381,"MEAN_ANOMALY":107.8212,"EPHEMERIS_TYPE":0,"CLASSIFICATION_TYPE":"U","NORAD_CAT_ID":57974,"ELEMENT_SET_NO":999,"REV_AT_EPOCH":13567,"BSTAR":-4.4439226e-5,"MEAN_MOTION_DOT":-1.451e-5,"MEAN_MOTION_DDOT":0},{"OBJECT_NAME":"DELTA 1 DEB","OBJECT_ID":"1977-065AM","EPOCH":"2026-03-09T22:03:01.031616","MEAN_MOTION":14.51643532,"ECCENTRICITY":0.03229519,"INCLINATION":28.9328,"RA_OF_ASC_NODE":276.015,"ARG_OF_PERICENTER":66.8309,"MEAN_ANOMALY":296.5959,"EPHEMERIS_TYPE":0,"CLASSIFICATION_TYPE":"U","NORAD_CAT_ID":10208,"ELEMENT_SET_NO":999,"REV_AT_EPOCH":43123,"BSTAR":0.0021583786,"MEAN_MOTION_DOT":0.00017761,"MEAN_MOTION_DDOT":0}]
